{
    "links": {
        "self": "http://www.neowsapp.com/rest/v1/neo/3841678?api_key=iIulBulltgU6a56xZRHN4H3l9WmuAYTsLGpBGhQ2"
    },
    "id": "3841678",
    "neo_reference_id": "3841678",
    "name": "(2019 HL4)",
    "designation": "2019 HL4",
    "nasa_jpl_url": "http://ssd.jpl.nasa.gov/sbdb.cgi?sstr=3841678",
    "absolute_magnitude_h": 23.1,
    "estimated_diameter": {
        "kilometers": {
            "estimated_diameter_min": 0.063760979,
            "estimated_diameter_max": 0.1425738833
        },
        "meters": {
            "estimated_diameter_min": 63.7609789875,
            "estimated_diameter_max": 142.5738833281
        },
        "miles": {
            "estimated_diameter_min": 0.0396192233,
            "estimated_diameter_max": 0.0885912765
        },
        "feet": {
            "estimated_diameter_min": 209.1895703015,
            "estimated_diameter_max": 467.7620993781
        }
    },
    "is_potentially_hazardous_asteroid": false,
    "close_approach_data": [
        {
            "close_approach_date": "2014-05-13",
            "close_approach_date_full": "2014-May-13 20:31",
            "epoch_date_close_approach": 1400013060000,
            "relative_velocity": {
                "kilometers_per_second": "15.0717838983",
                "kilometers_per_hour": "54258.422034001",
                "miles_per_hour": "33714.0734021824"
            },
            "miss_distance": {
                "astronomical": "0.3186034467",
                "lunar": "123.9367407663",
                "kilometers": "47662397.000978529",
                "miles": "29616040.1823765402"
            },
            "orbiting_body": "Earth"
        },
        {
            "close_approach_date": "2019-05-03",
            "close_approach_date_full": "2019-May-03 21:49",
            "epoch_date_close_approach": 1556920140000,
            "relative_velocity": {
                "kilometers_per_second": "14.5838139451",
                "kilometers_per_hour": "52501.7302025108",
                "miles_per_hour": "32622.5334138879"
            },
            "miss_distance": {
                "astronomical": "0.0749190903",
                "lunar": "29.1435261267",
                "kilometers": "11207736.331217661",
                "miles": "6964164.4236232818"
            },
            "orbiting_body": "Earth"
        },
        {
            "close_approach_date": "2024-04-23",
            "close_approach_date_full": "2024-Apr-23 10:53",
            "epoch_date_close_approach": 1713869580000,
            "relative_velocity": {
                "kilometers_per_second": "17.2400040465",
                "kilometers_per_hour": "62064.0145674536",
                "miles_per_hour": "38564.1650516492"
            },
            "miss_distance": {
                "astronomical": "0.2054888663",
                "lunar": "79.9351689907",
                "kilometers": "30740696.707194781",
                "miles": "19101383.1909427378"
            },
            "orbiting_body": "Earth"
        },
        {
            "close_approach_date": "2029-04-13",
            "close_approach_date_full": "2029-Apr-13 16:00",
            "epoch_date_close_approach": 1870790400000,
            "relative_velocity": {
                "kilometers_per_second": "21.9931403351",
                "kilometers_per_hour": "79175.305206324",
                "miles_per_hour": "49196.4556155628"
            },
            "miss_distance": {
                "astronomical": "0.4540342484",
                "lunar": "176.6193226276",
                "kilometers": "67922556.467690908",
                "miles": "42205119.5116262104"
            },
            "orbiting_body": "Earth"
        }
    ],
    "orbital_data": {
        "orbit_id": "3",
        "orbit_determination_date": "2019-05-06 07:14:21",
        "first_observation_date": "2019-04-14",
        "last_observation_date": "2019-05-06",
        "data_arc_in_days": 22,
        "observations_used": 145,
        "orbit_uncertainty": "7",
        "minimum_orbit_intersection": ".0548442",
        "jupiter_tisserand_invariant": "4.615",
        "epoch_osculation": "2459000.5",
        "eccentricity": ".2623052112212956",
        "semi_major_axis": "1.398302632963455",
        "inclination": "26.64360637898488",
        "ascending_node_longitude": "39.36165226400276",
        "orbital_period": "603.9488935921891",
        "perihelion_distance": "1.031520565472682",
        "perihelion_argument": "211.6029181621731",
        "aphelion_distance": "1.765084700454227",
        "perihelion_time": "2459241.071211083931",
        "mean_anomaly": "216.6010519944839",
        "mean_motion": ".5960769260769384",
        "equinox": "J2000",
        "orbit_class": {
            "orbit_class_type": "AMO",
            "orbit_class_description": "Near-Earth asteroid orbits similar to that of 1221 Amor",
            "orbit_class_range": "1.017 AU < q (perihelion) < 1.3 AU"
        }
    },
    "is_sentry_object": false
}